ORBCOMM FM115           
1 41186U 15081H   24195.72359108  .00001040  00000+0  24572-3 0  9998
2 41186  46.9972 207.4980 0001675 299.7654  60.3066 14.60878292458252
ORBCOMM FM108           
1 41187U 15081J   24195.88404773  .00001362  00000+0  33911-3 0  9999
2 41187  47.0047 263.0839 0002798 221.9687 138.0984 14.56727535457449
ORBCOMM FM117           
1 41188U 15081K   24195.91842046  .00001329  00000+0  33184-3 0  9998
2 41188  47.0008 261.7930 0003605 227.4202 132.6379 14.56729121457492
ORBCOMM FM116           
1 41189U 15081L   24195.77020624  .00001818  00000+0  43985-3 0  9996
2 41189  47.0034 352.3109 0002589 278.3146  81.7445 14.56741668456283
